{
  "6/15 bathurst street,liverpool nsw,australia": {
    "address": "6/15 Bathurst Street",
    "suburb": "Liverpool",
    "state": "NSW",
    "postcode": null
  },
  "5 charter street,sadleir nsw,australia": {
    "address": "5 Charter Street",
    "suburb": "Sadleir",
    "state": "NSW",
    "postcode": null
  },
  "5 bardia place,bossley park new south wales 2176,australia": {
    "address": "5 Bardia Place",
    "suburb": "Bossley Park",
    "state": "NSW",
    "postcode": "2176"
  },
  "31b roberts road,casula new south wales 2170,australia": {
    "address": "31B Roberts Road",
    "suburb": "Casula",
    "state": "NSW",
    "postcode": "2170"
  },
  "24 rudd street,narellan nsw,australia": {
    "address": "24 Rudd Street",
    "suburb": "Narellan",
    "state": "NSW",
    "postcode": null
  },
  "7 benine drive,cambridge park new south wales 2747,australia": {
    "address": "7 Benine Drive",
    "suburb": "Cambridge Park",
    "state": "NSW",
    "postcode": "2747"
  },
  "unit 3/18-20 livingstone avenue,ingleburn nsw,australia": {
    "address": "18-20 Livingstone Avenue",
    "suburb": "Ingleburn",
    "state": "NSW",
    "postcode": null
  },
  "45 moorland road,tahmoor nsw,australia": {
    "address": "45 Moorland Road",
    "suburb": "Tahmoor",
    "state": "NSW",
    "postcode": null
  },
  "3 mcminn place narellan vale,nsw australia 2567": {
    "address": "3 Mcminn Place",
    "suburb": "Narellan Vale",
    "state": "NSW",
    "postcode": "2567"
  },
  "59 berith road,greystances nsw australia 2145": {
    "address": "59 Berith Road",
    "suburb": "Greystanes",
    "state": "NSW",
    "postcode": "2145"
  },
  "29 swan cct,green valley nsw 2168,australia": {
    "address": "29 Swan Circuit",
    "suburb": "Green Valley",
    "state": "NSW",
    "postcode": "2168"
  },
  "301/17 goulburn street,liverpool nsw,australia": {
    "address": "301/17 Goulburn Street",
    "suburb": "Liverpool",
    "state": "NSW",
    "postcode": null
  },
  "2 lyell street,bossley park new south wales 2176,australia": {
    "address": "2 Lyell Street",
    "suburb": "Bossley Park",
    "state": "NSW",
    "postcode": "2176"
  },
  "400 edmondson ave,austral new south wales 2179,australia": {
    "address": "400 Edmondson Avenue",
    "suburb": "Austral",
    "state": "NSW",
    "postcode": "2179"
  },
  "34 stanley ave,midddleton grange nsw 2171": {
    "address": "34 Stanley Avenue",
    "suburb": "Middleton Grange",
    "state": "NSW",
    "postcode": "2171"
  },
  "36 moondarra drive,west hoxton nsw,australia": {
    "address": "36 Moondarra Drive",
    "suburb": "West Hoxton",
    "state": "NSW",
    "postcode": null
  },
  "60 silvester way,gledswood hills nsw,australia": {
    "address": "60 Silvester Way",
    "suburb": "Gledswood Hills",
    "state": "NSW",
    "postcode": null
  },
  "51a clarence street,condell park new south wales 2200,australia": {
    "address": "51A Clarence Street",
    "suburb": "Condell Park",
    "state": "NSW",
    "postcode": "2200"
  },
  "13 coull street,picton nsw,australia": {
    "address": "13 Coull Street",
    "suburb": "Picton",
    "state": "NSW",
    "postcode": null
  },
  "12 thomas hassall avenue,middleton grange nsw 2171": {
    "address": "12 Thomas Hassall Avenue",
    "suburb": "Middleton Grange",
    "state": "NSW",
    "postcode": "2171"
  },
  "4 wylarah close,glen alpine nsw,australia": {
    "address": "4 Wylarah Close",
    "suburb": "Glen Alpine",
    "state": "NSW",
    "postcode": null
  },
  "30/52 leumeah road,leumeah new south wales 2560,australia": {
    "address": "30/52 Leumeah Road",
    "suburb": "Leumeah",
    "state": "NSW",
    "postcode": "2560"
  },
  "15 trebbiano place,eschol park new south wales 2558,australia": {
    "address": "15 Trebbiano Place",
    "suburb": "Eschol Park",
    "state": "NSW",
    "postcode": "2558"
  },
  "19 claret ash grove,menai new south wales 2234,australia": {
    "address": "19 Claret Ash Grove",
    "suburb": "Menai",
    "state": "NSW",
    "postcode": "2234"
  },
  "21 christopher avenue,camden nsw,australia": {
    "address": "21 Christopher Avenue",
    "suburb": "Camden",
    "state": "NSW",
    "postcode": null
  },
  "22 lakeman street,leppington new south wales 2179,australia": {
    "address": "22 Lakeman Street",
    "suburb": "Leppington",
    "state": "NSW",
    "postcode": "2179"
  },
  "202 mount annan drive,mount annan nsw,australia": {
    "address": "202 Mount Annan Drive",
    "suburb": "Mount Annan",
    "state": "NSW",
    "postcode": null
  },
  "13 cape banks drive,harrington park nsw,australia": {
    "address": "13 Cape Banks Drive",
    "suburb": "Harrington Park",
    "state": "NSW",
    "postcode": null
  },
  "40 whitford road,hinchinbrook new south wales 2168,australia": {
    "address": "40 Whitford Road",
    "suburb": "Hinchinbrook",
    "state": "NSW",
    "postcode": "2168"
  },
  "7 leith place,st andrews new south wales 2566,australia": {
    "address": "7 Leith Place",
    "suburb": "St Andrews",
    "state": "NSW",
    "postcode": "2566"
  },
  "23 dunkirk road,edmondson park nsw,australia": {
    "address": "23 Dunkirk Road",
    "suburb": "Edmondson Park",
    "state": "NSW",
    "postcode": null
  },
  "110 carr road,bringelly new south wales 2556,australia": {
    "address": "110 Carr Road",
    "suburb": "Bringelly",
    "state": "NSW",
    "postcode": "2556"
  },
  "11 leopold place,cecil hills nsw 2171,australia": {
    "address": "11 Leopold Place",
    "suburb": "Cecil Hills",
    "state": "NSW",
    "postcode": "2171"
  },
  "10 percy street,fairfield heights new south wales 2165,australia": {
    "address": "10 Percy Street",
    "suburb": "Fairfield Heights",
    "state": "NSW",
    "postcode": "2165"
  },
  "59 marlborough street,smithfield nsw,australia": {
    "address": "59 Marlborough Street",
    "suburb": "Smithfield",
    "state": "NSW",
    "postcode": null
  },
  "20 boeing crescent,raby nsw,australia": {
    "address": "20 Boeing Crescent",
    "suburb": "Raby",
    "state": "NSW",
    "postcode": null
  },
  "14 affleck gardens,middleton grange new south wales 2171,australia": {
    "address": "14 Affleck Gardens",
    "suburb": "Middleton Grange",
    "state": "NSW",
    "postcode": "2171"
  },
  "21 hunter ave,lurnea nsw,australia 2170": {
    "address": "21 Hunter Ave",
    "suburb": "Lurnea",
    "state": "NSW",
    "postcode": "2170"
  },
  "7 jane street,smithfield new south wales 2164,australia": {
    "address": "7 Jane Street",
    "suburb": "Smithfield",
    "state": "NSW",
    "postcode": "2164"
  },
  "16a dulcimere st,tahmoor nsw,australia": {
    "address": "16a Dulcimere St",
    "suburb": "Tahmoor",
    "state": "NSW",
    "postcode": null
  },
  "3 percival avenue,middleton grange new south wales 2171,australia": {
    "address": "3 Percival Avenue",
    "suburb": "Middleton Grange",
    "state": "NSW",
    "postcode": "2171"
  },
  "3 woburn abbey court,wattle grove new south wales 2173,australia": {
    "address": "3 Woburn Abbey Court",
    "suburb": "Wattle Grove",
    "state": "NSW",
    "postcode": "2173"
  },
  "8 hambidge place,bow bowing nsw,australia": {
    "address": "8 Hambidge Place",
    "suburb": "Bow Bowing",
    "state": "NSW",
    "postcode": null
  },
  "26 caroline chisholm drive,camden south nsw,australia": {
    "address": "26 Caroline Chisholm Drive",
    "suburb": "Camden South",
    "state": "NSW",
    "postcode": null
  },
  "5a lofty place,ruse 2560,new south wales,australia": {
    "address": "5A Lofty Place",
    "suburb": "Ruse",
    "state": "NSW",
    "postcode": "2560"
  },
  "42 mcintyre circuit,middleton grange nsw 2171": {
    "address": "42 Mcintyre Circuit",
    "suburb": "Middleton Grange",
    "state": "NSW",
    "postcode": "2171"
  },
  "36 bowden blvd yagoona nsw australia 2199": {
    "address": "36 Bowden Blvd",
    "suburb": "Yagoona",
    "state": "NSW",
    "postcode": "2199"
  },
  "10/93 broughton street,campbelltown nsw,australia": {
    "address": "10/93 Broughton Street",
    "suburb": "Campbelltown",
    "state": "NSW",
    "postcode": null
  },
  "9a howard loop,oran park nsw,australia": {
    "address": "9A Howard Loop",
    "suburb": "Oran Park",
    "state": "NSW",
    "postcode": null
  },
  "54 cooper street,penrith new south wales 2750,australia": {
    "address": "54 Cooper Street",
    "suburb": "Penrith",
    "state": "NSW",
    "postcode": "2750"
  },
  "10 angourie place,bow bowing nsw,australia": {
    "address": "10 Angourie Place",
    "suburb": "Bow Bowing",
    "state": "NSW",
    "postcode": null
  },
  "5 centenary road,albion park nsw,australia": {
    "address": "5 Centenary Road",
    "suburb": "Albion Park",
    "state": "NSW",
    "postcode": null
  },
  "unit 31 22-24 remembrance ave warwick farm nsw 2170": {
    "address": "22-24 Remembrance Ave",
    "suburb": "Warwick Farm",
    "state": "NSW",
    "postcode": "2170"
  },
  "55 manooka crescent,bradbury nsw,australia": {
    "address": "55 Manooka Crescent",
    "suburb": "Bradbury",
    "state": "NSW",
    "postcode": null
  },
  "24a footscray street,st johns park 2176,new south wales,australia": {
    "address": "24a Footscray Street",
    "suburb": "St Johns Park",
    "state": "NSW",
    "postcode": "2176"
  },
  "23 claremont circuit,glen alpine nsw,australia": {
    "address": "23 Claremont Circuit",
    "suburb": "Glen Alpine",
    "state": "NSW",
    "postcode": null
  },
  "8 winston place,narellan vale new south wales,australia": {
    "address": "8 Winston Place",
    "suburb": "Narellan Vale",
    "state": "NSW",
    "postcode": null
  },
  "17 claret ash grove,menai nsw,australia nsw 2234": {
    "address": "17 Claret Ash Grove",
    "suburb": "Menai",
    "state": "NSW",
    "postcode": "2234"
  },
  "19 glen logan rd,bossley park nsw 2176,australia": {
    "address": "19 Glen Logan Rd",
    "suburb": "Bossley Park",
    "state": "NSW",
    "postcode": "2176"
  },
  "33 clarence st,macquarie fields nsw,australia": {
    "address": "33 Clarence St",
    "suburb": "Macquarie Fields",
    "state": "NSW",
    "postcode": null
  },
  "128 anderson avenue,mount pritchard nsw,australia": {
    "address": "128 Anderson Avenue",
    "suburb": "Mount Pritchard",
    "state": "NSW",
    "postcode": null
  },
  "15 minto close bonnyrigg heights,nsw australia 2177": {
    "address": "15 Minto Close",
    "suburb": "Bonnyrigg Heights",
    "state": "NSW",
    "postcode": "2177"
  },
  "12 fraser rd,canley vale nsw 2166,australia": {
    "address": "12 Fraser Rd",
    "suburb": "Canley Vale",
    "state": "NSW",
    "postcode": "2166"
  },
  "40 bathurst st,wakeley nsw 2176,australia": {
    "address": "40 Bathurst St",
    "suburb": "Wakeley",
    "state": "NSW",
    "postcode": "2176"
  },
  "111 kingsway street beverly hills,nsw 2209": {
    "address": "111 Kingsway Street",
    "suburb": "Beverly Hills",
    "state": "NSW",
    "postcode": "2209"
  },
  "2 vidal st,wetherill park nsw 2164,australia": {
    "address": "2 Vidal St",
    "suburb": "Wetherill Park",
    "state": "NSW",
    "postcode": "2164"
  },
  "55 de meyrick avenue,casula nsw,australia": {
    "address": "55 De Meyrick Avenue",
    "suburb": "Casula",
    "state": "NSW",
    "postcode": null
  },
  "77 prairie vale road,bossley park nsw,australia": {
    "address": "77 Prairie Vale Road",
    "suburb": "Bossley Park",
    "state": "NSW",
    "postcode": null
  },
  "2a/541 pembroke rd,leumeah nsw 2560,australia": {
    "address": "2a/541 Pembroke Rd",
    "suburb": "Leumeah",
    "state": "NSW",
    "postcode": "2560"
  },
  "18 ellis cres,miller nsw 2168,australia": {
    "address": "18 Ellis Cres",
    "suburb": "Miller",
    "state": "NSW",
    "postcode": "2168"
  },
  "12 ikara crescent,moorebank,2170,nsw": {
    "address": "12 Ikara Crescent",
    "suburb": "Moorebank",
    "state": "NSW",
    "postcode": "2170"
  },
  "13 edmunds street,carramar nsw 2163": {
    "address": "13 Edmunds Street",
    "suburb": "Carramar",
    "state": "NSW",
    "postcode": "2163"
  },
  "36 bowden boulevard,yagoona nsw,australia": {
    "address": "36 Bowden Boulevard",
    "suburb": "Yagoona",
    "state": "NSW",
    "postcode": null
  },
  "18 cubitt drive,denham court nsw 2565,australia": {
    "address": "18 Cubitt Drive",
    "suburb": "Denham Court",
    "state": "NSW",
    "postcode": "2565"
  },
  "52 beltana court,wattle grove nsw,australia": {
    "address": "52 Beltana Court",
    "suburb": "Wattle Grove",
    "state": "NSW",
    "postcode": null
  },
  "727 bringelly rd,rossmore,nsw,2557": {
    "address": "727 Bringelly Rd",
    "suburb": "Rossmore",
    "state": "NSW",
    "postcode": "2557"
  },
  "5/48 gill avenue,liverpool nsw,australia": {
    "address": "48 Gill Avenue",
    "suburb": "Liverpool",
    "state": "NSW",
    "postcode": null
  },
  "39 parsons st,ashcroft nsw,australia": {
    "address": "39 Parsons St",
    "suburb": "Ashcroft",
    "state": "NSW",
    "postcode": null
  },
  "3 cochran place,abbotsbury,2176,nsw": {
    "address": "3 Cochran Place",
    "suburb": "Abbotsbury",
    "state": "NSW",
    "postcode": "2176"
  },
  "171 townview road,mount pritchard nsw australia 2170": {
    "address": "171 Townview Road",
    "suburb": "Mount Pritchard",
    "state": "NSW",
    "postcode": "2170"
  },
  "27 whitten parade,harrington park nsw 2567,australia": {
    "address": "27 Whitten Parade",
    "suburb": "Harrington Park",
    "state": "NSW",
    "postcode": "2567"
  },
  "2-6 piper way,minto nsw,australia": {
    "address": "2-6 Piper Way",
    "suburb": "Minto",
    "state": "NSW",
    "postcode": null
  },
  "24 coral flame circuit,gregory hills nsw,australia": {
    "address": "24 Coral Flame Circuit",
    "suburb": "Gregory Hills",
    "state": "NSW",
    "postcode": null
  },
  "8 corry street,bonnyrigg nsw,australia": {
    "address": "8 Corry Street",
    "suburb": "Bonnyrigg",
    "state": "NSW",
    "postcode": null
  },
  "51 apache rd,bossley park nsw,australia": {
    "address": "51 Apache Rd",
    "suburb": "Bossley Park",
    "state": "NSW",
    "postcode": null
  },
  "8 auckland street,bonnyrigg heights nsw,australia": {
    "address": "8 Auckland Street",
    "suburb": "Bonnyrigg Heights",
    "state": "NSW",
    "postcode": null
  },
  "2 benghazi street,bossley park nsw australia 2176": {
    "address": "2 Benghazi Street",
    "suburb": "Bossley Park",
    "state": "NSW",
    "postcode": "2176"
  },
  "10 percy street,fairfield heights nsw,australia": {
    "address": "10 Percy Street",
    "suburb": "Fairfield Heights",
    "state": "NSW",
    "postcode": null
  },
  "35 lewin cres,chipping norton nsw 2170,australia": {
    "address": "35 Lewin Cres",
    "suburb": "Chipping Norton",
    "state": "NSW",
    "postcode": "2170"
  },
  "4 stradbroke ave,green valley nsw 2168,australia": {
    "address": "4 Stradbroke Ave",
    "suburb": "Green Valley",
    "state": "NSW",
    "postcode": "2168"
  },
  "1/21 mayberry crescent,liverpool nsw,australia": {
    "address": "1/21 Mayberry Crescent",
    "suburb": "Liverpool",
    "state": "NSW",
    "postcode": null
  },
  "7 wedmore way,canley vale nsw 2166,australia": {
    "address": "7 Wedmore Way",
    "suburb": "Canley Vale",
    "state": "NSW",
    "postcode": "2166"
  },
  "13 henty close,prestons nsw,australia": {
    "address": "13 Henty Close",
    "suburb": "Prestons",
    "state": "NSW",
    "postcode": null
  },
  "4 sims place,st johns park nsw,2176": {
    "address": "4 Sims Place",
    "suburb": "St Johns Park",
    "state": "NSW",
    "postcode": "2176"
  },
  "8a crane pl,wetherill park nsw 2164,australia": {
    "address": "8a Crane Pl",
    "suburb": "Wetherill Park",
    "state": "NSW",
    "postcode": "2164"
  },
  "37 henessey ave,moorenabk nsw australia 2170": {
    "address": "37 Henessey Ave",
    "suburb": "Moorenabk",
    "state": "NSW",
    "postcode": "2170"
  },
  "5 rayner place,bonnyrigg nsw 2177,australia": {
    "address": "5 Rayner Place",
    "suburb": "Bonnyrigg",
    "state": "NSW",
    "postcode": "2177"
  },
  "35-37 weeroona road,edensor park nsw,australia": {
    "address": "35-37 Weeroona Road",
    "suburb": "Edensor Park",
    "state": "NSW",
    "postcode": null
  },
  "22 ayrshire st,busby nsw 2168,australia": {
    "address": "22 Ayrshire St",
    "suburb": "Busby",
    "state": "NSW",
    "postcode": "2168"
  },
  "51a clarence st,condell park nsw 2200,australia": {
    "address": "51A Clarence St",
    "suburb": "Condell Park",
    "state": "NSW",
    "postcode": "2200"
  },
  "10 meredith cl,fairfield nsw,australia": {
    "address": "10 Meredith Cl, Fairfield",
    "suburb": "Fairfield",
    "state": "NSW",
    "postcode": null
  },
  "21 whitten parade,harrington park nsw,australia": {
    "address": "21 Whitten Parade, Harrington Park",
    "suburb": "Harrington Park",
    "state": "NSW",
    "postcode": null
  },
  "29 wattle ave,villawood nsw 2163,australia": {
    "address": "29 Wattle Ave, Villawood",
    "suburb": "Villawood",
    "state": "NSW",
    "postcode": "2163"
  },
  "21 mallacoota cl,prestons nsw,australia": {
    "address": "21 Mallacoota Cl, Prestons",
    "suburb": "Prestons",
    "state": "NSW",
    "postcode": null
  },
  "196 oxford road,ingleburn,nsw,2565": {
    "address": "196 Oxford Road, Ingleburn",
    "suburb": "Ingleburn",
    "state": "NSW",
    "postcode": "2565"
  },
  "9a keating place,denham court nsw australia 2565": {
    "address": "9A Keating Place, Denham Court",
    "suburb": "Denham Court",
    "state": "NSW",
    "postcode": "2565"
  },
  "29 culgoa court,wattle grove nsw,australia": {
    "address": "29 Culgoa Court, Wattle Grove",
    "suburb": "Wattle Grove",
    "state": "NSW",
    "postcode": null
  },
  "24 coral flame cct,gregory hills nsw,australia": {
    "address": "24 Coral Flame Cct, Gregory Hills",
    "suburb": "Gregory Hills",
    "state": "NSW",
    "postcode": null
  },
  "47 kincumber rd,bonnyrigg nsw 2177,australia": {
    "address": "47 Kincumber Rd, Bonnyrigg",
    "suburb": "Bonnyrigg",
    "state": "NSW",
    "postcode": "2177"
  },
  "5 swan court,harrington park nsw,australia": {
    "address": "5 Swan Court, Harrington Park",
    "suburb": "Harrington Park",
    "state": "NSW",
    "postcode": null
  },
  "13 merino street,miller nsw 2168,australia": {
    "address": "13 Merino Street, Miller",
    "suburb": "Miller",
    "state": "NSW",
    "postcode": "2168"
  },
  "24 lauderdale street,west hoxton nsw 2171": {
    "address": "24 Lauderdale Street, West Hoxton",
    "suburb": "West Hoxton",
    "state": "NSW",
    "postcode": "2171"
  },
  "13/8 reilly street,liverpool nsw,australia": {
    "address": "13/8 Reilly Street, Liverpool",
    "suburb": "Liverpool",
    "state": "NSW",
    "postcode": null
  },
  "2b noddy place,hinchinbrook,nsw,2168": {
    "address": "2B Noddy Place, Hinchinbrook",
    "suburb": "Hinchinbrook",
    "state": "NSW",
    "postcode": "2168"
  },
  "6 quota place,edensor park nsw,australia": {
    "address": "6 Quota Place, Edensor Park",
    "suburb": "Edensor Park",
    "state": "NSW",
    "postcode": null
  },
  "34/2 friend ave fivedock nsw,australia 2046": {
    "address": "34/2 Friend Ave Fivedock",
    "suburb": "Fivedock",
    "state": "NSW",
    "postcode": "2046"
  },
  "17 ariella place,edensor park nsw,australia 2176": {
    "address": "17 Ariella Place, Edensor Park",
    "suburb": "Edensor Park",
    "state": "NSW",
    "postcode": "2176"
  },
  "2 goodwin avenue,mount lewis nsw,australia": {
    "address": "2 Goodwin Avenue, Mount Lewis",
    "suburb": "Mount Lewis",
    "state": "NSW",
    "postcode": null
  },
  "5/114 bigge street,liverpool nsw,australia": {
    "address": "5/114 Bigge Street, Liverpool",
    "suburb": "Liverpool",
    "state": "NSW",
    "postcode": null
  },
  "11 leopold place,cecil hills nsw australia 2171": {
    "address": "11 Leopold Place, Cecil Hills",
    "suburb": "Cecil Hills",
    "state": "NSW",
    "postcode": "2171"
  },
  "9 corriedale street,miller nsw,2168 australia": {
    "address": "9 Corriedale Street",
    "suburb": "Miller",
    "state": "NSW",
    "postcode": "2168"
  },
  "6 bare ave,lurnea,2170,nsw": {
    "address": "6 Bare Ave",
    "suburb": "Lurnea",
    "state": "NSW",
    "postcode": "2170"
  },
  "14 coongra street,busby nsw,australia": {
    "address": "14 Coongra Street",
    "suburb": "Busby",
    "state": "NSW",
    "postcode": null
  },
  "261 wilson road,green valley nsw,australia": {
    "address": "261 Wilson Road",
    "suburb": "Green Valley",
    "state": "NSW",
    "postcode": null
  },
  "8 mildara place,edensor park nsw,australia": {
    "address": "8 Mildara Place",
    "suburb": "Edensor Park",
    "state": "NSW",
    "postcode": null
  },
  "47 abercrombie st,cabramatta west nsw 2166,australia": {
    "address": "47 Abercrombie St",
    "suburb": "Cabramatta West",
    "state": "NSW",
    "postcode": "2166"
  },
  "1 yarran court,wattle grove nsw,australia": {
    "address": "1 Yarran Court",
    "suburb": "Wattle Grove",
    "state": "NSW",
    "postcode": null
  },
  "84 north liverpool road,heckenberg nsw,australia": {
    "address": "84 North Liverpool Road",
    "suburb": "Heckenberg",
    "state": "NSW",
    "postcode": null
  },
  "10 lowry pl,prairiewood nsw 2176,australia": {
    "address": "10 Lowry Pl",
    "suburb": "Prairiewood",
    "state": "NSW",
    "postcode": "2176"
  },
  "31 armstrong st,ashcroft nsw 2168,australia": {
    "address": "31 Armstrong St",
    "suburb": "Ashcroft",
    "state": "NSW",
    "postcode": "2168"
  },
  "40 bower bird street,hinchinbrook nsw,australia": {
    "address": "40 Bower Bird Street",
    "suburb": "Hinchinbrook",
    "state": "NSW",
    "postcode": null
  },
  "47 boomerang rd,edensor park nsw 2176,australia": {
    "address": "47 Boomerang Rd",
    "suburb": "Edensor Park",
    "state": "NSW",
    "postcode": "2176"
  },
  "9 fuchsia place,bossley park nsw 2176,australia": {
    "address": "9 Fuchsia Place",
    "suburb": "Bossley Park",
    "state": "NSW",
    "postcode": "2176"
  },
  "4 hollydene cres,edensor park nsw,australia": {
    "address": "4 Hollydene Cres",
    "suburb": "Edensor Park",
    "state": "NSW",
    "postcode": null
  },
  "15 linley pl,cecil hills nsw 2171,australia": {
    "address": "15 Linley Pl",
    "suburb": "Cecil Hills",
    "state": "NSW",
    "postcode": "2171"
  },
  "48-50 cockatiel cct,green valley nsw 2168,australia": {
    "address": "48-50 Cockatiel Cct",
    "suburb": "Green Valley",
    "state": "NSW",
    "postcode": "2168"
  },
  "10/51 bonnyrigg avenue,bonnyrigg nsw,australia": {
    "address": "10/51 Bonnyrigg Avenue",
    "suburb": "Bonnyrigg",
    "state": "NSW",
    "postcode": null
  },
  "138 kavanagh street gregory hills,nsw 2557": {
    "address": "138 Kavanagh Street",
    "suburb": "Gregory Hills",
    "state": "NSW",
    "postcode": "2557"
  },
  "unit 1/37 budgerigar st,green valley,nsw,2168": {
    "address": "Unit 1/37 Budgerigar St",
    "suburb": "Green Valley",
    "state": "NSW",
    "postcode": "2168"
  },
  "7 whimbrel avenue,hinchinbrook nsw,australia": {
    "address": "7 Whimbrel Avenue",
    "suburb": "Hinchinbrook",
    "state": "NSW",
    "postcode": null
  },
  "32 currawong st,green valley nsw 2168,australia": {
    "address": "32 Currawong St",
    "suburb": "Green Valley",
    "state": "NSW",
    "postcode": "2168"
  },
  "4/55 wrentmore st,fairfield nsw,australia": {
    "address": "55 Wrentmore St",
    "suburb": "Fairfield",
    "state": "NSW",
    "postcode": null
  },
  "505 11 mannix parade warwick farm nsw australia 2170": {
    "address": "11 Mannix Parade Warwick Farm",
    "suburb": "Warwick Farm",
    "state": "NSW",
    "postcode": "2170"
  },
  "11 mariani close,bossley park nsw,2176 australia": {
    "address": "11 Mariani Close",
    "suburb": "Bossley Park",
    "state": "NSW",
    "postcode": "2176"
  },
  "5a tamworth cres,hoxton park nsw 2171,australia": {
    "address": "5A Tamworth Cres",
    "suburb": "Hoxton Park",
    "state": "NSW",
    "postcode": "2171"
  },
  "38 adeline st,bass hill nsw 2197,australia": {
    "address": "38 Adeline St",
    "suburb": "Bass Hill",
    "state": "NSW",
    "postcode": "2197"
  },
  "25 penguin parade,hinchinbrook,nsw,2168": {
    "address": "25 Penguin Parade",
    "suburb": "Hinchinbrook",
    "state": "NSW",
    "postcode": "2168"
  },
  "3/9 bendigo pl,cartwright nsw,australia": {
    "address": "9 Bendigo Pl",
    "suburb": "Cartwright",
    "state": "NSW",
    "postcode": null
  },
  "9/12-18 berrigan crescent,macquarie fields nsw,australia": {
    "address": "12-18 Berrigan Crescent",
    "suburb": "Macquarie Fields",
    "state": "NSW",
    "postcode": null
  },
  "82 earl street,canley heights nsw,australia": {
    "address": "82 Earl Street",
    "suburb": "Canley Heights",
    "state": "NSW",
    "postcode": null
  },
  "17 brentwood st,fairfield west nsw,australia": {
    "address": "17 Brentwood St",
    "suburb": "Fairfield West",
    "state": "NSW",
    "postcode": null
  },
  "165 the horsley drive,fairfield east nsw,australia": {
    "address": "165 The Horsley Drive",
    "suburb": "Fairfield East",
    "state": "NSW",
    "postcode": null
  },
  "11 damour street,holsworthy,nsw,2173": {
    "address": "11 Damour Street",
    "suburb": "Holsworthy",
    "state": "NSW",
    "postcode": "2173"
  },
  "7 lady penrhyn place,lurnea,nsw,2170": {
    "address": "7 Lady Penrhyn Place",
    "suburb": "Lurnea",
    "state": "NSW",
    "postcode": "2170"
  },
  "7/31 picnic point rd,panania nsw 2213,australia": {
    "address": "31 Picnic Point Rd",
    "suburb": "Panania",
    "state": "NSW",
    "postcode": "2213"
  },
  "22 harden street,canley heights nsw,australia": {
    "address": "22 Harden Street",
    "suburb": "Canley Heights",
    "state": "NSW",
    "postcode": null
  },
  "unit 6 23-29 eureka crescent,sadlier,nsw,2170": {
    "address": "23-29 Eureka Crescent",
    "suburb": "Sadlier",
    "state": "NSW",
    "postcode": "2170"
  },
  "5 hilda st,bass hill nsw 2197,australia": {
    "address": "5 Hilda St",
    "suburb": "Bass Hill",
    "state": "NSW",
    "postcode": "2197"
  },
  "11 govett street,mount pritchard,nsw,2170": {
    "address": "11 Govett Street",
    "suburb": "Mount Pritchard",
    "state": "NSW",
    "postcode": "2170"
  },
  "unit 5,53 cecil street,guildford nsw australia 2161": {
    "address": "53 Cecil Street",
    "suburb": "Guildford",
    "state": "NSW",
    "postcode": "2161"
  },
  "21 celebration rd,sadleir nsw 2168,australia": {
    "address": "21 Celebration Rd",
    "suburb": "Sadleir",
    "state": "NSW",
    "postcode": "2168"
  },
  "7 dampier cres,fairfield west nsw 2165,australia": {
    "address": "7 Dampier Cres",
    "suburb": "Fairfield West",
    "state": "NSW",
    "postcode": "2165"
  },
  "19 wilco ave,cabramatta west nsw,australia": {
    "address": "19 Wilco Ave",
    "suburb": "Cabramatta West",
    "state": "NSW",
    "postcode": null
  },
  "40 dobroyd drive,elizabeth hills nsw,australia": {
    "address": "40 Dobroyd Drive",
    "suburb": "Elizabeth Hills",
    "state": "NSW",
    "postcode": null
  },
  "9 sunset ave,lurnea nsw,australia": {
    "address": "9 Sunset Ave",
    "suburb": "Lurnea",
    "state": "NSW",
    "postcode": null
  },
  "2/9 bendigo pl,cartwright nsw 2168,australia": {
    "address": "2/9 Bendigo Pl",
    "suburb": "Cartwright",
    "state": "NSW",
    "postcode": "2168"
  },
  "58a belmore road,peakhurst nsw 2210": {
    "address": "58A Belmore Road",
    "suburb": "Peakhurst",
    "state": "NSW",
    "postcode": "2210"
  },
  "31 brown rd,bonnyrigg nsw 2177,australia": {
    "address": "31 Brown Rd",
    "suburb": "Bonnyrigg",
    "state": "NSW",
    "postcode": "2177"
  },
  "60 de meyrick ave,casula nsw 2170,australia": {
    "address": "60 De Meyrick Ave",
    "suburb": "Casula",
    "state": "NSW",
    "postcode": "2170"
  },
  "9 kenny pl,fairfield west nsw 2165,australia": {
    "address": "9 Kenny Pl",
    "suburb": "Fairfield West",
    "state": "NSW",
    "postcode": "2165"
  },
  "13/15-17 reserve road,casula,2170,nsw": {
    "address": "13/15-17 Reserve Road",
    "suburb": "Casula",
    "state": "NSW",
    "postcode": "2170"
  },
  "58 anastasio road,liverpool nsw,australia": {
    "address": "58 Anastasio Road",
    "suburb": "Liverpool",
    "state": "NSW",
    "postcode": null
  },
  "56 - 62 whitford road,hinchinbrook,2168": {
    "address": "56-62 Whitford Road",
    "suburb": "Hinchinbrook",
    "state": "NSW",
    "postcode": "2168"
  },
  "suite 2109,31 lasso road,gregory hills,2557": {
    "address": "31 Lasso Road",
    "suburb": "Gregory Hills",
    "state": "NSW",
    "postcode": "2557"
  },
  "3 carramar close,picton,2571": {
    "address": "3 Carramar Close",
    "suburb": "Picton",
    "state": "NSW",
    "postcode": "2571"
  },
  "9 the waters,mount annan,2567": {
    "address": "9 The Waters",
    "suburb": "Mount Annan",
    "state": "NSW",
    "postcode": "2567"
  },
  "24 coral flame crt,gregory hills 2557": {
    "address": "24 Coral Flame Court",
    "suburb": "Gregory Hills",
    "state": "NSW",
    "postcode": "2557"
  }
}